{"type": "FeatureCollection", "features": [ {"type": "Feature", "properties": {"norad_id": 40118, "name": "GAOFEN-2", "group": "resource", "lat": -69.18961113282171, "lon": -141.85249701031043, "alt_km": 640.7007025666135, "timestamp": "2025-12-26T18:39:31.929430+00:00", "meta": {"OBJECT_NAME": "GAOFEN-2", "OBJECT_ID": "2014-049A", "EPOCH": "2025-12-26T14:17:11.673600", "MEAN_MOTION": 14.80632582, "ECCENTRICITY": 0.00087245, "INCLINATION": 98.0361, "RA_OF_ASC_NODE": 59.7865, "ARG_OF_PERICENTER": 74.7683, "MEAN_ANOMALY": 285.4493, "EPHEMERIS_TYPE": 0, "CLASSIFICATION_TYPE": "U", "NORAD_CAT_ID": 40118, "ELEMENT_SET_NO": 999, "REV_AT_EPOCH": 61369, "BSTAR": 0.00016549637, "MEAN_MOTION_DOT": 1.218e-05, "MEAN_MOTION_DDOT": 0}, "tle": {"line1": "1 40118U 14049A   25360.59527400  .00001218  00000+0  16550-3 0  9991", "line2": "2 40118  98.0361  59.7865 0008724  74.7683 285.4493 14.80632582613698"}}, "geometry": {"type": "Point", "coordinates": [-141.85249701031043, -69.18961113282171]}}, {"type": "Feature", "properties": {"norad_id": 40143, "name": "YAOGAN-21", "group": "resource", "lat": -48.82409013569107, "lon": -144.799228801868, "alt_km": 504.63091136444564, "timestamp": "2025-12-26T18:39:31.929441+00:00", "meta": {"OBJECT_NAME": "YAOGAN-21", "OBJECT_ID": "2014-053A", "EPOCH": "2025-12-26T14:30:12.161952", "MEAN_MOTION": 15.23817988, "ECCENTRICITY": 0.00084725, "INCLINATION": 97.1735, "RA_OF_ASC_NODE": 43.314, "ARG_OF_PERICENTER": 355.3804, "MEAN_ANOMALY": 4.7354, "EPHEMERIS_TYPE": 0, "CLASSIFICATION_TYPE": "U", "NORAD_CAT_ID": 40143, "ELEMENT_SET_NO": 999, "REV_AT_EPOCH": 62865, "BSTAR": 0.0003334354, "MEAN_MOTION_DOT": 7.975e-05, "MEAN_MOTION_DDOT": 0}, "tle": {"line1": "1 40143U 14053A   25360.60430743  .00007975  00000+0  33344-3 0  9995", "line2": "2 40143  97.1735  43.3140 0008472 355.3804   4.7354 15.23817988628652"}}, "geometry": {"type": "Point", "coordinates": [-144.799228801868, -48.82409013569107]}}, {"type": "Feature", "properties": {"norad_id": 40275, "name": "YAOGAN-22", "group": "resource", "lat": -0.4360824291713223, "lon": 144.4783781136299, "alt_km": 1208.4209560231557, "timestamp": "2025-12-26T18:39:31.929451+00:00", "meta": {"OBJECT_NAME": "YAOGAN-22", "OBJECT_ID": "2014-063A", "EPOCH": "2025-12-26T15:00:38.332224", "MEAN_MOTION": 13.15523292, "ECCENTRICITY": 0.00061147, "INCLINATION": 100.7431, "RA_OF_ASC_NODE": 144.2415, "ARG_OF_PERICENTER": 215.0188, "MEAN_ANOMALY": 145.0522, "EPHEMERIS_TYPE": 0, "CLASSIFICATION_TYPE": "U", "NORAD_CAT_ID": 40275, "ELEMENT_SET_NO": 999, "REV_AT_EPOCH": 53712, "BSTAR": 5.2736066e-05, "MEAN_MOTION_DOT": -2.7e-07, "MEAN_MOTION_DDOT": 0}, "tle": {"line1": "1 40275U 14063A   25360.62544366 -.00000027  00000+0  52736-4 0  9990", "line2": "2 40275 100.7431 144.2415 0006114 215.0188 145.0522 13.15523292537124"}}, "geometry": {"type": "Point", "coordinates": [144.4783781136299, -0.4360824291713223]}}, {"type": "Feature", "properties": {"norad_id": 40298, "name": "ASNARO", "group": "resource", "lat": 68.74161875838824, "lon": 56.967017917399204, "alt_km": 496.0311045459748, "timestamp": "2025-12-26T18:39:31.929461+00:00", "meta": {"OBJECT_NAME": "ASNARO", "OBJECT_ID": "2014-070A", "EPOCH": "2025-12-26T15:11:30.594336", "MEAN_MOTION": 15.19785912, "ECCENTRICITY": 0.00056599, "INCLINATION": 97.3633, "RA_OF_ASC_NODE": 76.2401, "ARG_OF_PERICENTER": 84.1259, "MEAN_ANOMALY": 276.0621, "EPHEMERIS_TYPE": 0, "CLASSIFICATION_TYPE": "U", "NORAD_CAT_ID": 40298, "ELEMENT_SET_NO": 999, "REV_AT_EPOCH": 61780, "BSTAR": 0.00072043286, "MEAN_MOTION_DOT": 0.0001538, "MEAN_MOTION_DDOT": 0}, "tle": {"line1": "1 40298U 14070A   25360.63299299  .00015380  00000+0  72043-3 0  9995", "line2": "2 40298  97.3633  76.2401 0005659  84.1259 276.0621 15.19785912617804"}}, "geometry": {"type": "Point", "coordinates": [56.967017917399204, 68.74161875838824]}}, {"type": "Feature", "properties": {"norad_id": 40310, "name": "YAOGAN-24", "group": "resource", "lat": 10.575586750733466, "lon": 130.41848917083544, "alt_km": 641.96042774754, "timestamp": "2025-12-26T18:39:31.929471+00:00", "meta": {"OBJECT_NAME": "YAOGAN-24", "OBJECT_ID": "2014-072A", "EPOCH": "2025-12-26T15:21:25.432416", "MEAN_MOTION": 14.76205167, "ECCENTRICITY": 0.00152106, "INCLINATION": 98.1233, "RA_OF_ASC_NODE": 131.8083, "ARG_OF_PERICENTER": 96.5051, "MEAN_ANOMALY": 263.7891, "EPHEMERIS_TYPE": 0, "CLASSIFICATION_TYPE": "U", "NORAD_CAT_ID": 40310, "ELEMENT_SET_NO": 999, "REV_AT_EPOCH": 59826, "BSTAR": 0.00015538932, "MEAN_MOTION_DOT": 1.024e-05, "MEAN_MOTION_DDOT": 0}, "tle": {"line1": "1 40310U 14072A   25360.63987769  .00001024  00000+0  15539-3 0  9995", "line2": "2 40310  98.1233 131.8083 0015210  96.5051 263.7891 14.76205167598260"}}, "geometry": {"type": "Point", "coordinates": [130.41848917083544, 10.575586750733466]}}, {"type": "Feature", "properties": {"norad_id": 40336, "name": "CBERS 4", "group": "resource", "lat": -38.84698785041932, "lon": -128.462793461249, "alt_km": 780.4921915274081, "timestamp": "2025-12-26T18:39:31.929481+00:00", "meta": {"OBJECT_NAME": "CBERS 4", "OBJECT_ID": "2014-079A", "EPOCH": "2025-12-26T14:17:42.626400", "MEAN_MOTION": 14.35523494, "ECCENTRICITY": 0.00018932, "INCLINATION": 98.3285, "RA_OF_ASC_NODE": 58.137, "ARG_OF_PERICENTER": 97.0026, "MEAN_ANOMALY": 263.1376, "EPHEMERIS_TYPE": 0, "CLASSIFICATION_TYPE": "U", "NORAD_CAT_ID": 40336, "ELEMENT_SET_NO": 999, "REV_AT_EPOCH": 57919, "BSTAR": 9.6140279e-05, "MEAN_MOTION_DOT": 2.35e-06, "MEAN_MOTION_DDOT": 0}, "tle": {"line1": "1 40336U 14079A   25360.59563225  .00000235  00000+0  96140-4 0  9993", "line2": "2 40336  98.3285  58.1370 0001893  97.0026 263.1376 14.35523494579191"}}, "geometry": {"type": "Point", "coordinates": [-128.462793461249, -38.84698785041932]}}, {"type": "Feature", "properties": {"norad_id": 40362, "name": "YAOGAN-26", "group": "resource", "lat": 20.761458725541814, "lon": -1.740023157107703, "alt_km": 444.52123555114304, "timestamp": "2025-12-26T18:39:31.929492+00:00", "meta": {"OBJECT_NAME": "YAOGAN-26", "OBJECT_ID": "2014-088A", "EPOCH": "2025-12-26T15:26:56.251968", "MEAN_MOTION": 15.39782323, "ECCENTRICITY": 0.00041322, "INCLINATION": 97.0649, "RA_OF_ASC_NODE": 0.8257, "ARG_OF_PERICENTER": 345.9656, "MEAN_ANOMALY": 14.1476, "EPHEMERIS_TYPE": 0, "CLASSIFICATION_TYPE": "U", "NORAD_CAT_ID": 40362, "ELEMENT_SET_NO": 999, "REV_AT_EPOCH": 61108, "BSTAR": 0.00020336383, "MEAN_MOTION_DOT": 7.979e-05, "MEAN_MOTION_DDOT": 0}, "tle": {"line1": "1 40362U 14088A   25360.64370662  .00007979  00000+0  20336-3 0  9994", "line2": "2 40362  97.0649   0.8257 0004132 345.9656  14.1476 15.39782323611084"}}, "geometry": {"type": "Point", "coordinates": [-1.740023157107703, 20.761458725541814]}}, {"type": "Feature", "properties": {"norad_id": 40376, "name": "SMAP", "group": "resource", "lat": 26.04614127258291, "lon": 1.293284618930002, "alt_km": 681.0796161306453, "timestamp": "2025-12-26T18:39:31.929502+00:00", "meta": {"OBJECT_NAME": "SMAP", "OBJECT_ID": "2015-003A", "EPOCH": "2025-12-26T13:36:56.931840", "MEAN_MOTION": 14.6336198, "ECCENTRICITY": 0.00012377, "INCLINATION": 98.1291, "RA_OF_ASC_NODE": 5.0919, "ARG_OF_PERICENTER": 92.3685, "MEAN_ANOMALY": 267.7659, "EPHEMERIS_TYPE": 0, "CLASSIFICATION_TYPE": "U", "NORAD_CAT_ID": 40376, "ELEMENT_SET_NO": 999, "REV_AT_EPOCH": 58237, "BSTAR": 0.00012422185, "MEAN_MOTION_DOT": 5.95e-06, "MEAN_MOTION_DDOT": 0}, "tle": {"line1": "1 40376U 15003A   25360.56732560  .00000595  00000+0  12422-3 0  9991", "line2": "2 40376  98.1291   5.0919 0001237  92.3685 267.7659 14.63361980582370"}}, "geometry": {"type": "Point", "coordinates": [1.293284618930002, 26.04614127258291]}}, {"type": "Feature", "properties": {"norad_id": 40536, "name": "KOMPSAT-3A", "group": "resource", "lat": -17.19696442136678, "lon": 153.51146857373365, "alt_km": 438.67973006304146, "timestamp": "2025-12-26T18:39:31.929513+00:00", "meta": {"OBJECT_NAME": "KOMPSAT-3A", "OBJECT_ID": "2015-014A", "EPOCH": "2025-12-26T14:41:53.374848", "MEAN_MOTION": 15.44461402, "ECCENTRICITY": 0.00056725, "INCLINATION": 97.6807, "RA_OF_ASC_NODE": 335.731, "ARG_OF_PERICENTER": 97.4461, "MEAN_ANOMALY": 262.7431, "EPHEMERIS_TYPE": 0, "CLASSIFICATION_TYPE": "U", "NORAD_CAT_ID": 40536, "ELEMENT_SET_NO": 999, "REV_AT_EPOCH": 59509, "BSTAR": 0.00046566517, "MEAN_MOTION_DOT": 0.00021506, "MEAN_MOTION_DDOT": 0}, "tle": {"line1": "1 40536U 15014A   25360.61242332  .00021506  00000+0  46567-3 0  9992", "line2": "2 40536  97.6807 335.7310 0005672  97.4461 262.7431 15.44461402595094"}}, "geometry": {"type": "Point", "coordinates": [153.51146857373365, -17.19696442136678]}}, {"type": "Feature", "properties": {"norad_id": 40697, "name": "SENTINEL-2A", "group": "resource", "lat": 52.07972479072316, "lon": 61.949323593516795, "alt_km": 783.5167462642949, "timestamp": "2025-12-26T18:39:31.929523+00:00", "meta": {"OBJECT_NAME": "SENTINEL-2A", "OBJECT_ID": "2015-028A", "EPOCH": "2025-12-26T15:03:20.771136", "MEAN_MOTION": 14.30811513, "ECCENTRICITY": 0.00010514, "INCLINATION": 98.5724, "RA_OF_ASC_NODE": 72.9655, "ARG_OF_PERICENTER": 87.2912, "MEAN_ANOMALY": 272.8391, "EPHEMERIS_TYPE": 0, "CLASSIFICATION_TYPE": "U", "NORAD_CAT_ID": 40697, "ELEMENT_SET_NO": 999, "REV_AT_EPOCH": 54905, "BSTAR": 0.00012574368, "MEAN_MOTION_DOT": 2.86e-06, "MEAN_MOTION_DDOT": 0}, "tle": {"line1": "1 40697U 15028A   25360.62732374  .00000286  00000+0  12574-3 0  9999", "line2": "2 40697  98.5724  72.9655 0001051  87.2912 272.8391 14.30811513549055"}}, "geometry": {"type": "Point", "coordinates": [61.949323593516795, 52.07972479072316]}}]}